STARLINK-30346          
1 57704U 23129G   26068.15051516  .00000797  00000+0  39428-4 0  9998
2 57704  43.0061 120.6543 0001882 251.8694 108.1953 15.26732251140460
XCUBE-1                 
1 62400U 24247Z   26068.48297321  .00009773  00000+0  36224-3 0  9994
2 62400  44.9938 117.7807 0005235 331.1499  28.9094 15.27910558 67702
