[{"OBJECT_NAME":"STARLINK-30346","OBJECT_ID":"2023-129G","EPOCH":"2026-03-09T03:36:44.509824","MEAN_MOTION":15.26732251,"ECCENTRICITY":0.00018827,"INCLINATION":43.0061,"RA_OF_ASC_NODE":120.6543,"ARG_OF_PERICENTER":251.8694,"MEAN_ANOMALY":108.1953,"EPHEMERIS_TYPE":0,"CLASSIFICATION_TYPE":"U","NORAD_CAT_ID":57704,"ELEMENT_SET_NO":999,"REV_AT_EPOCH":14046,"BSTAR":3.9428031e-5,"MEAN_MOTION_DOT":7.97e-6,"MEAN_MOTION_DDOT":0},{"OBJECT_NAME":"XCUBE-1","OBJECT_ID":"2024-247Z","EPOCH":"2026-03-09T11:35:28.885344","MEAN_MOTION":15.27910558,"ECCENTRICITY":0.00052355,"INCLINATION":44.9938,"RA_OF_ASC_NODE":117.7807,"ARG_OF_PERICENTER":331.1499,"MEAN_ANOMALY":28.9094,"EPHEMERIS_TYPE":0,"CLASSIFICATION_TYPE":"U","NORAD_CAT_ID":62400,"ELEMENT_SET_NO":999,"REV_AT_EPOCH":6770,"BSTAR":0.00036224252,"MEAN_MOTION_DOT":9.773e-5,"MEAN_MOTION_DDOT":0}]
